{
 "type": "FeatureCollection",
 "features": [
  {
   "type": "Feature",
   "properties": {
    "slope_id": "rubicon-east",
    "name": "Northeast and east faces from the summit",
    "georef_rms_m": 40.0
   },
   "geometry": {
    "type": "Polygon",
    "coordinates": [
     [
      [
       -120.120919,
       38.994752
      ],
      [
       -120.120273,
       38.994916
      ],
      [
       -120.119966,
       38.994859
      ],
      [
       -120.119576,
       38.994563
      ],
      [
       -120.119516,
       38.994141
      ],
      [
       -120.119646,
       38.993917
      ],
      [
       -120.119877,
       38.99375
      ],
      [
       -120.133376,
       38.988514
      ],
      [
       -120.133803,
       38.988448
      ],
      [
       -120.134233,
       38.988577
      ],
      [
       -120.134505,
       38.988875
      ],
      [
       -120.13658,
       38.993675
      ],
      [
       -120.137052,
       38.995905
      ],
      [
       -120.136912,
       38.996191
      ],
      [
       -120.136544,
       38.996417
      ],
      [
       -120.136154,
       38.996455
      ],
      [
       -120.135742,
       38.996319
      ],
      [
       -120.132799,
       38.999152
      ],
      [
       -120.132096,
       39.000826
      ],
      [
       -120.131803,
       39.001031
      ],
      [
       -120.131342,
       39.0011
      ],
      [
       -120.130974,
       39.000994
      ],
      [
       -120.130752,
       39.000819
      ],
      [
       -120.130623,
       39.00053
      ],
      [
       -120.130676,
       39.000234
      ],
      [
       -120.127196,
       38.999131
      ],
      [
       -120.126595,
       38.999478
      ],
      [
       -120.126281,
       38.999497
      ],
      [
       -120.125914,
       38.999387
      ],
      [
       -120.125696,
       38.99921
      ],
      [
       -120.125572,
       38.998919
      ],
      [
       -120.125609,
       38.998675
      ],
      [
       -120.125797,
       38.998433
      ],
      [
       -120.120919,
       38.994752
      ]
     ]
    ]
   }
  },
  {
   "type": "Feature",
   "properties": {
    "slope_id": "hidden-east",
    "name": "Northeast-facing trees from the cirque to the highway",
    "georef_rms_m": 3.0
   },
   "geometry": {
    "type": "Polygon",
    "coordinates": [
     [
      [
       -120.11791,
       38.97965
      ],
      [
       -120.115623,
       38.981376
      ],
      [
       -120.110858,
       38.982598
      ],
      [
       -120.110078,
       38.98267
      ],
      [
       -120.109431,
       38.982528
      ],
      [
       -120.10864,
       38.982048
      ],
      [
       -120.10832,
       38.981586
      ],
      [
       -120.108317,
       38.981061
      ],
      [
       -120.108631,
       38.980596
      ],
      [
       -120.1122,
       38.978042
      ],
      [
       -120.114253,
       38.976731
      ],
      [
       -120.117134,
       38.97574
      ],
      [
       -120.117674,
       38.975727
      ],
      [
       -120.118132,
       38.975856
      ],
      [
       -120.11865,
       38.975734
      ],
      [
       -120.122028,
       38.975524
      ],
      [
       -120.124741,
       38.974759
      ],
      [
       -120.125491,
       38.974827
      ],
      [
       -120.12584,
       38.97499
      ],
      [
       -120.126112,
       38.975225
      ],
      [
       -120.126328,
       38.975654
      ],
      [
       -120.126308,
       38.976075
      ],
      [
       -120.125373,
       38.977859
      ],
      [
       -120.125067,
       38.978165
      ],
      [
       -120.123453,
       38.979277
      ],
      [
       -120.122948,
       38.979455
      ],
      [
       -120.122395,
       38.979464
      ],
      [
       -120.120622,
       38.978934
      ],
      [
       -120.11791,
       38.97965
      ]
     ]
    ]
   }
  },
  {
   "type": "Feature",
   "properties": {
    "slope_id": "jakes-ne-bowl",
    "name": "Northeast trees, east gully, east bowl",
    "georef_rms_m": 40.0
   },
   "geometry": {
    "type": "Polygon",
    "coordinates": [
     [
      [
       -120.101652,
       38.970531
      ],
      [
       -120.101455,
       38.970055
      ],
      [
       -120.101687,
       38.969671
      ],
      [
       -120.105078,
       38.967882
      ],
      [
       -120.109129,
       38.966702
      ],
      [
       -120.113092,
       38.96617
      ],
      [
       -120.117523,
       38.96594
      ],
      [
       -120.11783,
       38.965996
      ],
      [
       -120.118086,
       38.966139
      ],
      [
       -120.118537,
       38.966704
      ],
      [
       -120.118574,
       38.966949
      ],
      [
       -120.118449,
       38.967239
      ],
      [
       -120.117017,
       38.968662
      ],
      [
       -120.113848,
       38.971529
      ],
      [
       -120.113285,
       38.972782
      ],
      [
       -120.113077,
       38.972967
      ],
      [
       -120.112795,
       38.973076
      ],
      [
       -120.112402,
       38.97308
      ],
      [
       -120.112053,
       38.97294
      ],
      [
       -120.11183,
       38.972688
      ],
      [
       -120.111794,
       38.97235
      ],
      [
       -120.104106,
       38.97122
      ],
      [
       -120.102384,
       38.971571
      ],
      [
       -120.101994,
       38.971544
      ],
      [
       -120.101665,
       38.971377
      ],
      [
       -120.101476,
       38.971109
      ],
      [
       -120.101471,
       38.970802
      ],
      [
       -120.101652,
       38.970531
      ]
     ]
    ]
   }
  },
  {
   "type": "Feature",
   "properties": {
    "slope_id": "jakes-south-face",
    "name": "Southeast face, Y Chute, south gully, South Jakes Trees, Vikingsholm & Emerald Bay chutes",
    "georef_rms_m": 40.0
   },
   "geometry": {
    "type": "Polygon",
    "coordinates": [
     [
      [
       -120.115747,
       38.952326
      ],
      [
       -120.115657,
       38.951907
      ],
      [
       -120.115928,
       38.951539
      ],
      [
       -120.116437,
       38.951389
      ],
      [
       -120.116747,
       38.951432
      ],
      [
       -120.117012,
       38.951565
      ],
      [
       -120.120852,
       38.955083
      ],
      [
       -120.124095,
       38.957815
      ],
      [
       -120.124564,
       38.958442
      ],
      [
       -120.12455,
       38.958748
      ],
      [
       -120.124353,
       38.959013
      ],
      [
       -120.124019,
       38.959174
      ],
      [
       -120.123638,
       38.959194
      ],
      [
       -120.123957,
       38.959306
      ],
      [
       -120.124176,
       38.959483
      ],
      [
       -120.124293,
       38.959711
      ],
      [
       -120.124289,
       38.959957
      ],
      [
       -120.124164,
       38.960183
      ],
      [
       -120.123938,
       38.960354
      ],
      [
       -120.123362,
       38.960448
      ],
      [
       -120.123093,
       38.961672
      ],
      [
       -120.12347,
       38.961849
      ],
      [
       -120.123666,
       38.962042
      ],
      [
       -120.123756,
       38.96234
      ],
      [
       -120.123655,
       38.962636
      ],
      [
       -120.123387,
       38.96286
      ],
      [
       -120.123094,
       38.962951
      ],
      [
       -120.122702,
       38.962931
      ],
      [
       -120.122353,
       38.962794
      ],
      [
       -120.120796,
       38.964005
      ],
      [
       -120.120981,
       38.964234
      ],
      [
       -120.12103,
       38.964477
      ],
      [
       -120.120956,
       38.964716
      ],
      [
       -120.12077,
       38.964914
      ],
      [
       -120.120501,
       38.965042
      ],
      [
       -120.12019,
       38.96508
      ],
      [
       -120.119652,
       38.964895
      ],
      [
       -120.119159,
       38.965278
      ],
      [
       -120.119371,
       38.965569
      ],
      [
       -120.119349,
       38.965934
      ],
      [
       -120.119069,
       38.966228
      ],
      [
       -120.118707,
       38.966346
      ],
      [
       -120.118243,
       38.966292
      ],
      [
       -120.113832,
       38.964663
      ],
      [
       -120.110513,
       38.962805
      ],
      [
       -120.10817,
       38.960413
      ],
      [
       -120.108018,
       38.960131
      ],
      [
       -120.108084,
       38.959768
      ],
      [
       -120.108397,
       38.959496
      ],
      [
       -120.108851,
       38.959405
      ],
      [
       -120.109297,
       38.959529
      ],
      [
       -120.115957,
       38.952538
      ],
      [
       -120.115747,
       38.952326
      ]
     ]
    ]
   }
  },
  {
   "type": "Feature",
   "properties": {
    "slope_id": "maggies-north-slope",
    "name": "Maggies North: north slope to Eagle Falls",
    "georef_rms_m": 15.0
   },
   "geometry": {
    "type": "Polygon",
    "coordinates": [
     [
      [
       -120.113978,
       38.945805
      ],
      [
       -120.113743,
       38.950987
      ],
      [
       -120.113576,
       38.951275
      ],
      [
       -120.113281,
       38.951492
      ],
      [
       -120.112902,
       38.951603
      ],
      [
       -120.112497,
       38.951593
      ],
      [
       -120.112128,
       38.951462
      ],
      [
       -120.111909,
       38.951297
      ],
      [
       -120.111697,
       38.950857
      ],
      [
       -120.111913,
       38.945616
      ],
      [
       -120.112533,
       38.943239
      ],
      [
       -120.11347,
       38.941401
      ],
      [
       -120.113691,
       38.941136
      ],
      [
       -120.113933,
       38.940992
      ],
      [
       -120.114523,
       38.940895
      ],
      [
       -120.114912,
       38.940983
      ],
      [
       -120.115228,
       38.941181
      ],
      [
       -120.115423,
       38.941458
      ],
      [
       -120.115467,
       38.941772
      ],
      [
       -120.114525,
       38.943705
      ],
      [
       -120.113978,
       38.945805
      ]
     ]
    ]
   }
  },
  {
   "type": "Feature",
   "properties": {
    "slope_id": "maggies-north-east",
    "name": "Maggies North: east side toward Bayview",
    "georef_rms_m": 15.0
   },
   "geometry": {
    "type": "Polygon",
    "coordinates": [
     [
      [
       -120.103659,
       38.944574
      ],
      [
       -120.100819,
       38.946218
      ],
      [
       -120.100419,
       38.946269
      ],
      [
       -120.100025,
       38.946196
      ],
      [
       -120.099697,
       38.946011
      ],
      [
       -120.099484,
       38.945741
      ],
      [
       -120.099447,
       38.945272
      ],
      [
       -120.09975,
       38.944865
      ],
      [
       -120.103346,
       38.942723
      ],
      [
       -120.107157,
       38.941443
      ],
      [
       -120.11035,
       38.940993
      ],
      [
       -120.114278,
       38.940813
      ],
      [
       -120.114864,
       38.940923
      ],
      [
       -120.115166,
       38.941133
      ],
      [
       -120.115312,
       38.941342
      ],
      [
       -120.115376,
       38.941654
      ],
      [
       -120.115281,
       38.941961
      ],
      [
       -120.115043,
       38.942217
      ],
      [
       -120.114698,
       38.942382
      ],
      [
       -120.110818,
       38.942595
      ],
      [
       -120.103659,
       38.944574
      ]
     ]
    ]
   }
  },
  {
   "type": "Feature",
   "properties": {
    "slope_id": "maggies-south-ne",
    "name": "Maggies South: northeast face past Granite Lake",
    "georef_rms_m": 15.0
   },
   "geometry": {
    "type": "Polygon",
    "coordinates": [
     [
      [
       -120.107042,
       38.938547
      ],
      [
       -120.10682,
       38.938385
      ],
      [
       -120.106635,
       38.938103
      ],
      [
       -120.106646,
       38.937633
      ],
      [
       -120.108371,
       38.935198
      ],
      [
       -120.110674,
       38.932857
      ],
      [
       -120.113053,
       38.930993
      ],
      [
       -120.11338,
       38.930826
      ],
      [
       -120.11369,
       38.930767
      ],
      [
       -120.114078,
       38.9308
      ],
      [
       -120.114365,
       38.930908
      ],
      [
       -120.114639,
       38.931125
      ],
      [
       -120.114773,
       38.931352
      ],
      [
       -120.114808,
       38.931655
      ],
      [
       -120.114728,
       38.931897
      ],
      [
       -120.113358,
       38.93436
      ],
      [
       -120.109401,
       38.939902
      ],
      [
       -120.106624,
       38.942969
      ],
      [
       -120.10387,
       38.944096
      ],
      [
       -120.103371,
       38.944149
      ],
      [
       -120.102985,
       38.944053
      ],
      [
       -120.102675,
       38.943849
      ],
      [
       -120.102489,
       38.943569
      ],
      [
       -120.102454,
       38.943254
      ],
      [
       -120.102577,
       38.942952
      ],
      [
       -120.10292,
       38.942664
      ],
      [
       -120.104461,
       38.942036
      ],
      [
       -120.107042,
       38.938547
      ]
     ]
    ]
   }
  },
  {
   "type": "Feature",
   "properties": {
    "slope_id": "janine-east",
    "name": "East face to Azure Lake",
    "georef_rms_m": 52.0
   },
   "geometry": {
    "type": "Polygon",
    "coordinates": [
     [
      [
       -120.124724,
       38.919713
      ],
      [
       -120.124204,
       38.919482
      ],
      [
       -120.124093,
       38.919078
      ],
      [
       -120.126747,
       38.911839
      ],
      [
       -120.130742,
       38.906481
      ],
      [
       -120.130667,
       38.906196
      ],
      [
       -120.130764,
       38.905945
      ],
      [
       -120.131123,
       38.905714
      ],
      [
       -120.131589,
       38.905713
      ],
      [
       -120.131982,
       38.90599
      ],
      [
       -120.133099,
       38.908414
      ],
      [
       -120.135225,
       38.912299
      ],
      [
       -120.138838,
       38.91695
      ],
      [
       -120.138931,
       38.917148
      ],
      [
       -120.138899,
       38.917409
      ],
      [
       -120.138762,
       38.91759
      ],
      [
       -120.138484,
       38.917738
      ],
      [
       -120.138211,
       38.917769
      ],
      [
       -120.131372,
       38.919925
      ],
      [
       -120.125521,
       38.921552
      ],
      [
       -120.125185,
       38.921552
      ],
      [
       -120.124889,
       38.921428
      ],
      [
       -120.124683,
       38.921159
      ],
      [
       -120.124694,
       38.920869
      ],
      [
       -120.124381,
       38.920739
      ],
      [
       -120.124199,
       38.920518
      ],
      [
       -120.124233,
       38.920105
      ],
      [
       -120.124724,
       38.919713
      ]
     ]
    ]
   }
  },
  {
   "type": "Feature",
   "properties": {
    "slope_id": "dicks-north-east",
    "name": "North face to Dicks Lake",
    "georef_rms_m": 52.0
   },
   "geometry": {
    "type": "Polygon",
    "coordinates": [
     [
      [
       -120.151455,
       38.903459
      ],
      [
       -120.151281,
       38.903681
      ],
      [
       -120.147915,
       38.906451
      ],
      [
       -120.14352,
       38.908593
      ],
      [
       -120.14298,
       38.908642
      ],
      [
       -120.142522,
       38.908413
      ],
      [
       -120.142357,
       38.90807
      ],
      [
       -120.142463,
       38.907714
      ],
      [
       -120.146071,
       38.903645
      ],
      [
       -120.150135,
       38.899932
      ],
      [
       -120.150607,
       38.899721
      ],
      [
       -120.151223,
       38.899699
      ],
      [
       -120.15153,
       38.899755
      ],
      [
       -120.151836,
       38.899946
      ],
      [
       -120.151991,
       38.900227
      ],
      [
       -120.151455,
       38.903459
      ]
     ]
    ]
   }
  },
  {
   "type": "Feature",
   "properties": {
    "slope_id": "dicks-southeast",
    "name": "Southeast face to Half Moon Lake",
    "georef_rms_m": 52.0
   },
   "geometry": {
    "type": "Polygon",
    "coordinates": [
     [
      [
       -120.140102,
       38.896492
      ],
      [
       -120.139849,
       38.896347
      ],
      [
       -120.139686,
       38.896136
      ],
      [
       -120.139638,
       38.895893
      ],
      [
       -120.139713,
       38.895654
      ],
      [
       -120.1399,
       38.895456
      ],
      [
       -120.140169,
       38.895329
      ],
      [
       -120.14048,
       38.895292
      ],
      [
       -120.140786,
       38.89535
      ],
      [
       -120.146311,
       38.897369
      ],
      [
       -120.151099,
       38.899473
      ],
      [
       -120.151456,
       38.899794
      ],
      [
       -120.15151,
       38.900036
      ],
      [
       -120.151442,
       38.900276
      ],
      [
       -120.151262,
       38.900478
      ],
      [
       -120.150996,
       38.90061
      ],
      [
       -120.150686,
       38.900653
      ],
      [
       -120.150379,
       38.9006
      ],
      [
       -120.1456,
       38.898501
      ],
      [
       -120.140102,
       38.896492
      ]
     ]
    ]
   }
  },
  {
   "type": "Feature",
   "properties": {
    "slope_id": "tallac-north",
    "name": "North bowl, The Corkscrew, Corkscrew Trees, east ridge",
    "georef_rms_m": 61.0
   },
   "geometry": {
    "type": "Polygon",
    "coordinates": [
     [
      [
       -120.088126,
       38.915335
      ],
      [
       -120.087909,
       38.91508
      ],
      [
       -120.087863,
       38.914836
      ],
      [
       -120.08794,
       38.914598
      ],
      [
       -120.088129,
       38.914401
      ],
      [
       -120.090468,
       38.913511
      ],
      [
       -120.098201,
       38.907671
      ],
      [
       -120.098569,
       38.906673
      ],
      [
       -120.098762,
       38.906479
      ],
      [
       -120.099097,
       38.906344
      ],
      [
       -120.099343,
       38.905932
      ],
      [
       -120.099608,
       38.9058
      ],
      [
       -120.099918,
       38.905757
      ],
      [
       -120.100226,
       38.905811
      ],
      [
       -120.100483,
       38.905952
      ],
      [
       -120.100705,
       38.90634
      ],
      [
       -120.101103,
       38.910456
      ],
      [
       -120.100606,
       38.914556
      ],
      [
       -120.100361,
       38.914951
      ],
      [
       -120.094048,
       38.91759
      ],
      [
       -120.084318,
       38.92002
      ],
      [
       -120.083926,
       38.920036
      ],
      [
       -120.083571,
       38.919906
      ],
      [
       -120.083371,
       38.919716
      ],
      [
       -120.083278,
       38.919481
      ],
      [
       -120.083308,
       38.919236
      ],
      [
       -120.083456,
       38.919019
      ],
      [
       -120.08377,
       38.918836
      ],
      [
       -120.084958,
       38.918548
      ],
      [
       -120.088126,
       38.915335
      ]
     ]
    ]
   }
  },
  {
   "type": "Feature",
   "properties": {
    "slope_id": "tallac-east",
    "name": "The Cross and Cross Bowl",
    "georef_rms_m": 61.0
   },
   "geometry": {
    "type": "Polygon",
    "coordinates": [
     [
      [
       -120.096896,
       38.905923
      ],
      [
       -120.098418,
       38.905571
      ],
      [
       -120.098733,
       38.905572
      ],
      [
       -120.099023,
       38.905667
      ],
      [
       -120.099245,
       38.905841
      ],
      [
       -120.099364,
       38.906069
      ],
      [
       -120.099363,
       38.906315
      ],
      [
       -120.099194,
       38.906591
      ],
      [
       -120.098878,
       38.906773
      ],
      [
       -120.095833,
       38.907487
      ],
      [
       -120.093476,
       38.908128
      ],
      [
       -120.087459,
       38.910417
      ],
      [
       -120.085433,
       38.911888
      ],
      [
       -120.08513,
       38.911954
      ],
      [
       -120.084817,
       38.911924
      ],
      [
       -120.084389,
       38.911663
      ],
      [
       -120.084263,
       38.911311
      ],
      [
       -120.08441,
       38.910963
      ],
      [
       -120.087485,
       38.908656
      ],
      [
       -120.090895,
       38.904721
      ],
      [
       -120.091187,
       38.904517
      ],
      [
       -120.091568,
       38.904444
      ],
      [
       -120.092015,
       38.904552
      ],
      [
       -120.09231,
       38.904837
      ],
      [
       -120.092353,
       38.9052
      ],
      [
       -120.096896,
       38.905923
      ]
     ]
    ]
   }
  },
  {
   "type": "Feature",
   "properties": {
    "slope_id": "tallac-cathedral",
    "name": "Cathedral Bowl (southeast)",
    "georef_rms_m": 61.0
   },
   "geometry": {
    "type": "Polygon",
    "coordinates": [
     [
      [
       -120.088709,
       38.901107
      ],
      [
       -120.086866,
       38.901073
      ],
      [
       -120.086434,
       38.90098
      ],
      [
       -120.086161,
       38.900797
      ],
      [
       -120.085999,
       38.900546
      ],
      [
       -120.085973,
       38.900265
      ],
      [
       -120.086085,
       38.899998
      ],
      [
       -120.086394,
       38.899745
      ],
      [
       -120.086819,
       38.899635
      ],
      [
       -120.093007,
       38.899759
      ],
      [
       -120.09764,
       38.901646
      ],
      [
       -120.097868,
       38.90178
      ],
      [
       -120.098072,
       38.902031
      ],
      [
       -120.099466,
       38.904953
      ],
      [
       -120.099523,
       38.905231
      ],
      [
       -120.099399,
       38.905567
      ],
      [
       -120.099161,
       38.905778
      ],
      [
       -120.098838,
       38.905901
      ],
      [
       -120.098479,
       38.905919
      ],
      [
       -120.098138,
       38.905828
      ],
      [
       -120.097774,
       38.905522
      ],
      [
       -120.097376,
       38.904697
      ],
      [
       -120.088709,
       38.901107
      ]
     ]
    ]
   }
  }
 ]
}