{"type":"FeatureCollection","features":[{"type":"Feature","geometry":{"type":"Polygon","coordinates":[[[-120.120919,38.994752],[-120.120273,38.994916],[-120.119966,38.994859],[-120.119576,38.994563],[-120.119516,38.994141],[-120.119646,38.993917],[-120.119877,38.99375],[-120.133376,38.988514],[-120.133803,38.988448],[-120.134233,38.988577],[-120.134505,38.988875],[-120.13658,38.993675],[-120.137052,38.995905],[-120.136912,38.996191],[-120.136544,38.996417],[-120.136154,38.996455],[-120.135742,38.996319],[-120.132799,38.999152],[-120.132096,39.000826],[-120.131803,39.001031],[-120.131342,39.0011],[-120.130974,39.000994],[-120.130752,39.000819],[-120.130623,39.00053],[-120.130676,39.000234],[-120.127196,38.999131],[-120.126595,38.999478],[-120.126281,38.999497],[-120.125914,38.999387],[-120.125696,38.99921],[-120.125572,38.998919],[-120.125609,38.998675],[-120.125797,38.998433],[-120.120919,38.994752]]]},"properties":{"tour_id":"rubicon","tour_name":"Rubicon Peak","slope_id":"rubicon-east","slope_name":"Northeast and east faces from the summit","area_ha":115.1,"mean_slope_deg":23.5,"mean_aspect_deg":31.0,"elev_min_ft":6947,"elev_max_ft":9176,"pct_30_45_deg":6.0}},{"type":"Feature","geometry":{"type":"Polygon","coordinates":[[[-120.11791,38.97965],[-120.115623,38.981376],[-120.110858,38.982598],[-120.110078,38.98267],[-120.109431,38.982528],[-120.10864,38.982048],[-120.10832,38.981586],[-120.108317,38.981061],[-120.108631,38.980596],[-120.1122,38.978042],[-120.114253,38.976731],[-120.117134,38.97574],[-120.117674,38.975727],[-120.118132,38.975856],[-120.11865,38.975734],[-120.122028,38.975524],[-120.124741,38.974759],[-120.125491,38.974827],[-120.12584,38.97499],[-120.126112,38.975225],[-120.126328,38.975654],[-120.126308,38.976075],[-120.125373,38.977859],[-120.125067,38.978165],[-120.123453,38.979277],[-120.122948,38.979455],[-120.122395,38.979464],[-120.120622,38.978934],[-120.11791,38.97965]]]},"properties":{"tour_id":"hidden","tour_name":"Hidden Peak","slope_id":"hidden-east","slope_name":"Northeast-facing trees from the cirque to the highway","area_ha":65.4,"mean_slope_deg":25.6,"mean_aspect_deg":63.0,"elev_min_ft":6838,"elev_max_ft":9170,"pct_30_45_deg":26.0}},{"type":"Feature","geometry":{"type":"Polygon","coordinates":[[[-120.101652,38.970531],[-120.101455,38.970055],[-120.101687,38.969671],[-120.105078,38.967882],[-120.109129,38.966702],[-120.113092,38.96617],[-120.117523,38.96594],[-120.11783,38.965996],[-120.118086,38.966139],[-120.118537,38.966704],[-120.118574,38.966949],[-120.118449,38.967239],[-120.117017,38.968662],[-120.113848,38.971529],[-120.113285,38.972782],[-120.113077,38.972967],[-120.112795,38.973076],[-120.112402,38.97308],[-120.112053,38.97294],[-120.11183,38.972688],[-120.111794,38.97235],[-120.104106,38.97122],[-120.102384,38.971571],[-120.101994,38.971544],[-120.101665,38.971377],[-120.101476,38.971109],[-120.101471,38.970802],[-120.101652,38.970531]]]},"properties":{"tour_id":"jakes-ne","tour_name":"Jakes Peak \u2014 Northeast side","slope_id":"jakes-ne-bowl","slope_name":"Northeast trees, east gully, east bowl","area_ha":68.1,"mean_slope_deg":26.2,"mean_aspect_deg":74.0,"elev_min_ft":6897,"elev_max_ft":9174,"pct_30_45_deg":35.0}},{"type":"Feature","geometry":{"type":"Polygon","coordinates":[[[-120.115747,38.952326],[-120.115657,38.951907],[-120.115928,38.951539],[-120.116437,38.951389],[-120.116747,38.951432],[-120.117012,38.951565],[-120.120852,38.955083],[-120.124095,38.957815],[-120.124564,38.958442],[-120.12455,38.958748],[-120.124353,38.959013],[-120.124019,38.959174],[-120.123638,38.959194],[-120.123957,38.959306],[-120.124176,38.959483],[-120.124293,38.959711],[-120.124289,38.959957],[-120.124164,38.960183],[-120.123938,38.960354],[-120.123362,38.960448],[-120.123093,38.961672],[-120.12347,38.961849],[-120.123666,38.962042],[-120.123756,38.96234],[-120.123655,38.962636],[-120.123387,38.96286],[-120.123094,38.962951],[-120.122702,38.962931],[-120.122353,38.962794],[-120.120796,38.964005],[-120.120981,38.964234],[-120.12103,38.964477],[-120.120956,38.964716],[-120.12077,38.964914],[-120.120501,38.965042],[-120.12019,38.96508],[-120.119652,38.964895],[-120.119159,38.965278],[-120.119371,38.965569],[-120.119349,38.965934],[-120.119069,38.966228],[-120.118707,38.966346],[-120.118243,38.966292],[-120.113832,38.964663],[-120.110513,38.962805],[-120.10817,38.960413],[-120.108018,38.960131],[-120.108084,38.959768],[-120.108397,38.959496],[-120.108851,38.959405],[-120.109297,38.959529],[-120.115957,38.952538],[-120.115747,38.952326]]]},"properties":{"tour_id":"jakes-south","tour_name":"Jakes Peak \u2014 South side","slope_id":"jakes-south-face","slope_name":"Southeast face, Y Chute, south gully, South Jakes Trees, Vikingsholm & Emerald Bay chutes","area_ha":132.0,"mean_slope_deg":34.0,"mean_aspect_deg":128.0,"elev_min_ft":6732,"elev_max_ft":9156,"pct_30_45_deg":62.0}},{"type":"Feature","geometry":{"type":"Polygon","coordinates":[[[-120.113978,38.945805],[-120.113743,38.950987],[-120.113576,38.951275],[-120.113281,38.951492],[-120.112902,38.951603],[-120.112497,38.951593],[-120.112128,38.951462],[-120.111909,38.951297],[-120.111697,38.950857],[-120.111913,38.945616],[-120.112533,38.943239],[-120.11347,38.941401],[-120.113691,38.941136],[-120.113933,38.940992],[-120.114523,38.940895],[-120.114912,38.940983],[-120.115228,38.941181],[-120.115423,38.941458],[-120.115467,38.941772],[-120.114525,38.943705],[-120.113978,38.945805]]]},"properties":{"tour_id":"maggies","tour_name":"Maggies Peaks","slope_id":"maggies-north-slope","slope_name":"Maggies North \u2014 north slope to Eagle Falls","area_ha":21.0,"mean_slope_deg":30.6,"mean_aspect_deg":18.0,"elev_min_ft":6563,"elev_max_ft":8493,"pct_30_45_deg":48.0}},{"type":"Feature","geometry":{"type":"Polygon","coordinates":[[[-120.106053,38.946675],[-120.106298,38.946321],[-120.106874,38.946335],[-120.106889,38.945975],[-120.107235,38.945984],[-120.107239,38.945894],[-120.107815,38.945908],[-120.107804,38.946178],[-120.10815,38.946187],[-120.108302,38.945289],[-120.108763,38.9453],[-120.108778,38.94494],[-120.108893,38.944943],[-120.1089,38.944763],[-120.109246,38.944772],[-120.10925,38.944682],[-120.109365,38.944684],[-120.109373,38.944504],[-120.109488,38.944507],[-120.109492,38.944417],[-120.109722,38.944423],[-120.10973,38.944243],[-120.109964,38.944159],[-120.109967,38.944068],[-120.110083,38.944071],[-120.11009,38.943891],[-120.110205,38.943894],[-120.110328,38.943717],[-120.110443,38.94372],[-120.110447,38.94363],[-120.111023,38.943644],[-120.111012,38.943914],[-120.111128,38.943917],[-120.111124,38.944007],[-120.111585,38.944018],[-120.111593,38.943838],[-120.112061,38.94367],[-120.112191,38.943312],[-120.112306,38.943315],[-120.112314,38.943135],[-120.112544,38.943141],[-120.112548,38.943051],[-120.112663,38.943054],[-120.112671,38.942874],[-120.113593,38.942896],[-120.1136,38.942716],[-120.113716,38.942719],[-120.113719,38.942629],[-120.114411,38.942646],[-120.114422,38.942376],[-120.114307,38.942373],[-120.114336,38.941653],[-120.114451,38.941656],[-120.114469,38.941206],[-120.114242,38.94111],[-120.114268,38.94048],[-120.114383,38.940482],[-120.114542,38.939405],[-120.114658,38.939408],[-120.11478,38.93923],[-120.114896,38.939233],[-120.114907,38.938963],[-120.114791,38.93896],[-120.114842,38.9377],[-120.114958,38.937702],[-120.11502,38.936172],[-120.114213,38.936152],[-120.114209,38.936242],[-120.113056,38.936213],[-120.113053,38.936303],[-120.1119,38.936275],[-120.111896,38.936365],[-120.11132,38.936351],[-120.111279,38.937341],[-120.111164,38.937338],[-120.111146,38.937788],[-120.111031,38.937785],[-120.111023,38.937966],[-120.110908,38.937963],[-120.110897,38.938233],[-120.110782,38.93823],[-120.110771,38.9385],[-120.110655,38.938497],[-120.110644,38.938767],[-120.110529,38.938765],[-120.110518,38.939035],[-120.110403,38.939032],[-120.11028,38.939209],[-120.110165,38.939206],[-120.110132,38.940017],[-120.110017,38.940014],[-120.110013,38.940104],[-120.10886,38.940075],[-120.108864,38.939985],[-120.108287,38.939971],[-120.10828,38.940151],[-120.108626,38.94016],[-120.108593,38.94097],[-120.108478,38.940967],[-120.10847,38.941147],[-120.108355,38.941144],[-120.108348,38.941324],[-120.107879,38.941493],[-120.107876,38.941583],[-120.10776,38.94158],[-120.107638,38.941757],[-120.107522,38.941755],[-120.107519,38.941845],[-120.107284,38.941929],[-120.107281,38.942019],[-120.107165,38.942016],[-120.107043,38.942193],[-120.106928,38.94219],[-120.10692,38.942371],[-120.106805,38.942368],[-120.106801,38.942458],[-120.106571,38.942452],[-120.106563,38.942632],[-120.106448,38.942629],[-120.106444,38.942719],[-120.105868,38.942705],[-120.105875,38.942525],[-120.105648,38.942429],[-120.10567,38.941889],[-120.105786,38.941892],[-120.1058,38.941532],[-120.105916,38.941534],[-120.105926,38.941264],[-120.106042,38.941267],[-120.10606,38.940817],[-120.106175,38.94082],[-120.106183,38.94064],[-120.106298,38.940643],[-120.106435,38.940105],[-120.106551,38.940108],[-120.106695,38.939391],[-120.10681,38.939393],[-120.106818,38.939213],[-120.106933,38.939216],[-120.10694,38.939036],[-120.107056,38.939039],[-120.107186,38.938682],[-120.107301,38.938685],[-120.107308,38.938504],[-120.107424,38.938507],[-120.107431,38.938327],[-120.107546,38.93833],[-120.107553,38.93815],[-120.107669,38.938153],[-120.10768,38.937883],[-120.107795,38.937886],[-120.10781,38.937525],[-120.107925,38.937528],[-120.107943,38.937078],[-120.108174,38.937084],[-120.108178,38.936994],[-120.108293,38.936997],[-120.108304,38.936726],[-120.108419,38.936729],[-120.108426,38.936549],[-120.107158,38.936518],[-120.107155,38.936608],[-120.106002,38.936579],[-120.105998,38.936669],[-120.104845,38.936641],[-120.104841,38.936731],[-120.103573,38.936699],[-120.10357,38.936789],[-120.102647,38.936766],[-120.102644,38.936856],[-120.101952,38.936839],[-120.101934,38.937289],[-120.101699,38.937374],[-120.101685,38.937734],[-120.101569,38.937731],[-120.101566,38.937821],[-120.101331,38.937905],[-120.101324,38.938085],[-120.10109,38.93817],[-120.101079,38.93844],[-120.100964,38.938437],[-120.100953,38.938707],[-120.100837,38.938704],[-120.100826,38.938974],[-120.100592,38.939059],[-120.100462,38.939416],[-120.100347,38.939413],[-120.100339,38.939593],[-120.100105,38.939678],[-120.100098,38.939858],[-120.099982,38.939855],[-120.099975,38.940035],[-120.09986,38.940032],[-120.099845,38.940392],[-120.09973,38.940389],[-120.099712,38.940839],[-120.100403,38.940857],[-120.100396,38.941037],[-120.100511,38.94104],[-120.100486,38.94167],[-120.100601,38.941673],[-120.100568,38.942483],[-120.099991,38.942469],[-120.099984,38.942649],[-120.101022,38.942675],[-120.100967,38.944025],[-120.100851,38.944022],[-120.100729,38.9442],[-120.100613,38.944197],[-120.100606,38.944377],[-120.100375,38.944371],[-120.100357,38.944821],[-120.100703,38.94483],[-120.100692,38.9451],[-120.101614,38.945123],[-120.101622,38.944943],[-120.102083,38.944954],[-120.102094,38.944684],[-120.102325,38.94469],[-120.102328,38.9446],[-120.102562,38.944516],[-120.10257,38.944336],[-120.102685,38.944338],[-120.102689,38.944248],[-120.103381,38.944266],[-120.10337,38.944536],[-120.103485,38.944539],[-120.103467,38.944989],[-120.103351,38.944986],[-120.103337,38.945346],[-120.103794,38.945448],[-120.10379,38.945538],[-120.103906,38.94554],[-120.104014,38.945723],[-120.104244,38.945729],[-120.104241,38.945819],[-120.104356,38.945822],[-120.104464,38.946005],[-120.104695,38.946011],[-120.104706,38.945741],[-120.104821,38.945743],[-120.104858,38.944843],[-120.104973,38.944846],[-120.104976,38.944756],[-120.105092,38.944759],[-120.105214,38.944582],[-120.10533,38.944584],[-120.105337,38.944404],[-120.105452,38.944407],[-120.105456,38.944317],[-120.105687,38.944323],[-120.105809,38.944146],[-120.106386,38.94416],[-120.106367,38.94461],[-120.106252,38.944607],[-120.10623,38.945148],[-120.106115,38.945145],[-120.105963,38.946042],[-120.105732,38.946037],[-120.10571,38.946577],[-120.105826,38.94658],[-120.105822,38.94667],[-120.106053,38.946675]]]},"properties":{"tour_id":"maggies","tour_name":"Maggies Peaks","slope_id":"maggies-north-east","slope_name":"Maggies North \u2014 northeast to southeast side","area_ha":91.1,"mean_slope_deg":27.4,"mean_aspect_deg":87.0,"elev_min_ft":6850,"elev_max_ft":8479,"pct_30_45_deg":35.0}},{"type":"Feature","geometry":{"type":"Polygon","coordinates":[[[-120.107042,38.938547],[-120.10682,38.938385],[-120.106635,38.938103],[-120.106646,38.937633],[-120.108371,38.935198],[-120.110674,38.932857],[-120.113053,38.930993],[-120.11338,38.930826],[-120.11369,38.930767],[-120.114078,38.9308],[-120.114365,38.930908],[-120.114639,38.931125],[-120.114773,38.931352],[-120.114808,38.931655],[-120.114728,38.931897],[-120.113358,38.93436],[-120.109401,38.939902],[-120.106624,38.942969],[-120.10387,38.944096],[-120.103371,38.944149],[-120.102985,38.944053],[-120.102675,38.943849],[-120.102489,38.943569],[-120.102454,38.943254],[-120.102577,38.942952],[-120.10292,38.942664],[-120.104461,38.942036],[-120.107042,38.938547]]]},"properties":{"tour_id":"maggies","tour_name":"Maggies Peaks","slope_id":"maggies-south-ne","slope_name":"Maggies South \u2014 northeast face past Granite Lake","area_ha":44.9,"mean_slope_deg":24.6,"mean_aspect_deg":37.0,"elev_min_ft":7061,"elev_max_ft":8662,"pct_30_45_deg":23.0}},{"type":"Feature","geometry":{"type":"Polygon","coordinates":[[[-120.124724,38.919713],[-120.124204,38.919482],[-120.124093,38.919078],[-120.126747,38.911839],[-120.130742,38.906481],[-120.130667,38.906196],[-120.130764,38.905945],[-120.131123,38.905714],[-120.131589,38.905713],[-120.131982,38.90599],[-120.133099,38.908414],[-120.135225,38.912299],[-120.138838,38.91695],[-120.138931,38.917148],[-120.138899,38.917409],[-120.138762,38.91759],[-120.138484,38.917738],[-120.138211,38.917769],[-120.131372,38.919925],[-120.125521,38.921552],[-120.125185,38.921552],[-120.124889,38.921428],[-120.124683,38.921159],[-120.124694,38.920869],[-120.124381,38.920739],[-120.124199,38.920518],[-120.124233,38.920105],[-120.124724,38.919713]]]},"properties":{"tour_id":"janine","tour_name":"Janines Peak","slope_id":"janine-east","slope_name":"East face to Azure Lake","area_ha":119.0,"mean_slope_deg":23.3,"mean_aspect_deg":41.0,"elev_min_ft":7661,"elev_max_ft":9577,"pct_30_45_deg":16.0}},{"type":"Feature","geometry":{"type":"Polygon","coordinates":[[[-120.151455,38.903459],[-120.151281,38.903681],[-120.147915,38.906451],[-120.14352,38.908593],[-120.14298,38.908642],[-120.142522,38.908413],[-120.142357,38.90807],[-120.142463,38.907714],[-120.146071,38.903645],[-120.150135,38.899932],[-120.150607,38.899721],[-120.151223,38.899699],[-120.15153,38.899755],[-120.151836,38.899946],[-120.151991,38.900227],[-120.151455,38.903459]]]},"properties":{"tour_id":"dicks","tour_name":"Dicks Peak","slope_id":"dicks-north-east","slope_name":"North face to Dicks Lake","area_ha":32.1,"mean_slope_deg":26.7,"mean_aspect_deg":14.0,"elev_min_ft":8391,"elev_max_ft":9974,"pct_30_45_deg":37.0}},{"type":"Feature","geometry":{"type":"Polygon","coordinates":[[[-120.141023,38.903643],[-120.141027,38.903553],[-120.141603,38.903567],[-120.141607,38.903477],[-120.141837,38.903482],[-120.141841,38.903392],[-120.142302,38.903404],[-120.142305,38.903314],[-120.144844,38.903286],[-120.144967,38.903108],[-120.146004,38.903134],[-120.146126,38.902957],[-120.146357,38.902962],[-120.146364,38.902782],[-120.146598,38.902698],[-120.146609,38.902428],[-120.146494,38.902425],[-120.146501,38.902245],[-120.146386,38.902242],[-120.146396,38.901972],[-120.146281,38.901969],[-120.146306,38.901339],[-120.147228,38.901361],[-120.147225,38.901451],[-120.148377,38.901479],[-120.148381,38.901389],[-120.148611,38.901395],[-120.148615,38.901305],[-120.14896,38.901313],[-120.148964,38.901223],[-120.149079,38.901226],[-120.149202,38.901049],[-120.149432,38.901054],[-120.149555,38.900877],[-120.14967,38.90088],[-120.149681,38.90061],[-120.150142,38.900621],[-120.150145,38.900531],[-120.150376,38.900537],[-120.150379,38.900447],[-120.150955,38.900461],[-120.151085,38.900103],[-120.151319,38.900019],[-120.151449,38.899661],[-120.151564,38.899664],[-120.151571,38.899484],[-120.151686,38.899487],[-120.151704,38.899037],[-120.15182,38.89904],[-120.15183,38.898769],[-120.151946,38.898772],[-120.15196,38.898412],[-120.152075,38.898415],[-120.152083,38.898235],[-120.152198,38.898238],[-120.152205,38.898058],[-120.15232,38.89806],[-120.152331,38.89779],[-120.152446,38.897793],[-120.152457,38.897523],[-120.152572,38.897526],[-120.152579,38.897346],[-120.152003,38.897332],[-120.152007,38.897241],[-120.151776,38.897236],[-120.15178,38.897146],[-120.151665,38.897143],[-120.151683,38.896693],[-120.151913,38.896698],[-120.151917,38.896608],[-120.152493,38.896622],[-120.152486,38.896803],[-120.152716,38.896808],[-120.152777,38.895277],[-120.152893,38.89528],[-120.152929,38.89438],[-120.152698,38.894374],[-120.152673,38.895004],[-120.151982,38.894988],[-120.151989,38.894807],[-120.151874,38.894805],[-120.151888,38.894444],[-120.150736,38.894416],[-120.150754,38.893966],[-120.150523,38.89396],[-120.150509,38.894321],[-120.150163,38.894312],[-120.150156,38.894492],[-120.149926,38.894487],[-120.149918,38.894667],[-120.149458,38.894655],[-120.149454,38.894746],[-120.148302,38.894717],[-120.148298,38.894807],[-120.147261,38.894782],[-120.147265,38.894692],[-120.147034,38.894686],[-120.147038,38.894596],[-120.146923,38.894594],[-120.14693,38.894413],[-120.146699,38.894408],[-120.146703,38.894318],[-120.146476,38.894222],[-120.14648,38.894132],[-120.146364,38.894129],[-120.146368,38.894039],[-120.146022,38.894031],[-120.14603,38.893851],[-120.145453,38.893837],[-120.145446,38.894017],[-120.14487,38.894003],[-120.144863,38.894183],[-120.145324,38.894194],[-120.14532,38.894284],[-120.145551,38.89429],[-120.145533,38.89474],[-120.145417,38.894737],[-120.14541,38.894917],[-120.145871,38.894928],[-120.145853,38.895379],[-120.145738,38.895376],[-120.145731,38.895556],[-120.145154,38.895542],[-120.145158,38.895452],[-120.144812,38.895443],[-120.144798,38.895803],[-120.143761,38.895778],[-120.143779,38.895328],[-120.143549,38.895322],[-120.14352,38.896043],[-120.143404,38.89604],[-120.143386,38.89649],[-120.143271,38.896487],[-120.143268,38.896577],[-120.142231,38.896552],[-120.142303,38.894751],[-120.141842,38.89474],[-120.141809,38.89555],[-120.141694,38.895547],[-120.14168,38.895907],[-120.141564,38.895905],[-120.141557,38.896085],[-120.141327,38.896079],[-120.141305,38.896619],[-120.140268,38.896594],[-120.140257,38.896864],[-120.140142,38.896861],[-120.140138,38.896951],[-120.139447,38.896934],[-120.139325,38.897111],[-120.138633,38.897095],[-120.13863,38.897185],[-120.138399,38.897179],[-120.138392,38.897359],[-120.137927,38.897438],[-120.137913,38.897798],[-120.138028,38.897801],[-120.138021,38.897981],[-120.138136,38.897984],[-120.138125,38.898254],[-120.13824,38.898257],[-120.138233,38.898437],[-120.138348,38.89844],[-120.138341,38.89862],[-120.138456,38.898622],[-120.138446,38.898893],[-120.138561,38.898895],[-120.138662,38.899258],[-120.138777,38.899261],[-120.138766,38.899531],[-120.138881,38.899534],[-120.138874,38.899714],[-120.138989,38.899717],[-120.138978,38.899987],[-120.139094,38.89999],[-120.139086,38.90017],[-120.139202,38.900173],[-120.139194,38.900353],[-120.13931,38.900356],[-120.139299,38.900626],[-120.139414,38.900629],[-120.139407,38.900809],[-120.139522,38.900812],[-120.139515,38.900992],[-120.13963,38.900995],[-120.139619,38.901265],[-120.139734,38.901268],[-120.139727,38.901448],[-120.139842,38.901451],[-120.139835,38.901631],[-120.13995,38.901634],[-120.13994,38.901904],[-120.140055,38.901906],[-120.140048,38.902087],[-120.140163,38.902089],[-120.140156,38.90227],[-120.140271,38.902272],[-120.14026,38.902542],[-120.140375,38.902545],[-120.140476,38.902908],[-120.140591,38.902911],[-120.14058,38.903181],[-120.140696,38.903184],[-120.140688,38.903364],[-120.140804,38.903367],[-120.140793,38.903637],[-120.141023,38.903643]]]},"properties":{"tour_id":"dicks","tour_name":"Dicks Peak","slope_id":"dicks-south","slope_name":"South face to Half Moon Lake","area_ha":86.7,"mean_slope_deg":27.8,"mean_aspect_deg":135.0,"elev_min_ft":8150,"elev_max_ft":9968,"pct_30_45_deg":40.0}},{"type":"Feature","geometry":{"type":"Polygon","coordinates":[[[-120.088126,38.915335],[-120.087909,38.91508],[-120.087863,38.914836],[-120.08794,38.914598],[-120.088129,38.914401],[-120.090468,38.913511],[-120.098201,38.907671],[-120.098569,38.906673],[-120.098762,38.906479],[-120.099097,38.906344],[-120.099343,38.905932],[-120.099608,38.9058],[-120.099918,38.905757],[-120.100226,38.905811],[-120.100483,38.905952],[-120.100705,38.90634],[-120.101103,38.910456],[-120.100606,38.914556],[-120.100361,38.914951],[-120.094048,38.91759],[-120.084318,38.92002],[-120.083926,38.920036],[-120.083571,38.919906],[-120.083371,38.919716],[-120.083278,38.919481],[-120.083308,38.919236],[-120.083456,38.919019],[-120.08377,38.918836],[-120.084958,38.918548],[-120.088126,38.915335]]]},"properties":{"tour_id":"tallac","tour_name":"Mount Tallac","slope_id":"tallac-north","slope_name":"North bowl, The Corkscrew, Corkscrew Trees, east ridge","area_ha":94.2,"mean_slope_deg":29.4,"mean_aspect_deg":53.0,"elev_min_ft":6641,"elev_max_ft":9697,"pct_30_45_deg":44.0}},{"type":"Feature","geometry":{"type":"Polygon","coordinates":[[[-120.096896,38.905923],[-120.098418,38.905571],[-120.098733,38.905572],[-120.099023,38.905667],[-120.099245,38.905841],[-120.099364,38.906069],[-120.099363,38.906315],[-120.099194,38.906591],[-120.098878,38.906773],[-120.095833,38.907487],[-120.093476,38.908128],[-120.087459,38.910417],[-120.085433,38.911888],[-120.08513,38.911954],[-120.084817,38.911924],[-120.084389,38.911663],[-120.084263,38.911311],[-120.08441,38.910963],[-120.087485,38.908656],[-120.090895,38.904721],[-120.091187,38.904517],[-120.091568,38.904444],[-120.092015,38.904552],[-120.09231,38.904837],[-120.092353,38.9052],[-120.096896,38.905923]]]},"properties":{"tour_id":"tallac","tour_name":"Mount Tallac","slope_id":"tallac-east","slope_name":"The Cross and Cross Bowl","area_ha":33.5,"mean_slope_deg":30.5,"mean_aspect_deg":48.0,"elev_min_ft":7001,"elev_max_ft":9722,"pct_30_45_deg":31.0}},{"type":"Feature","geometry":{"type":"Polygon","coordinates":[[[-120.088709,38.901107],[-120.086866,38.901073],[-120.086434,38.90098],[-120.086161,38.900797],[-120.085999,38.900546],[-120.085973,38.900265],[-120.086085,38.899998],[-120.086394,38.899745],[-120.086819,38.899635],[-120.093007,38.899759],[-120.09764,38.901646],[-120.097868,38.90178],[-120.098072,38.902031],[-120.099466,38.904953],[-120.099523,38.905231],[-120.099399,38.905567],[-120.099161,38.905778],[-120.098838,38.905901],[-120.098479,38.905919],[-120.098138,38.905828],[-120.097774,38.905522],[-120.097376,38.904697],[-120.088709,38.901107]]]},"properties":{"tour_id":"tallac","tour_name":"Mount Tallac","slope_id":"tallac-cathedral","slope_name":"Cathedral Bowl (southeast)","area_ha":31.8,"mean_slope_deg":31.0,"mean_aspect_deg":123.0,"elev_min_ft":7649,"elev_max_ft":9716,"pct_30_45_deg":44.0}}]}